OBJECT_NAME,OBJECT_ID,EPOCH,MEAN_MOTION,ECCENTRICITY,INCLINATION,RA_OF_ASC_NODE,ARG_OF_PERICENTER,MEAN_ANOMALY,EPHEMERIS_TYPE,CLASSIFICATION_TYPE,NORAD_CAT_ID,ELEMENT_SET_NO,REV_AT_EPOCH,BSTAR,MEAN_MOTION_DOT,MEAN_MOTION_DDOT
GLOBALSTAR M069,2007-020C,2026-06-23T21:57:56.317824,12.23471321,.00021844,52.0019,233.0840,162.8189,8.5820,0,U,31573,999,87962,.67476061E-4,-.85E-6,0
GLOBALSTAR M072,2007-020D,2026-06-25T00:41:28.692384,11.91658399,.0001507,51.9936,79.3688,351.2980,108.7419,0,U,31574,999,87591,-.56335E-4,-.88E-6,0
GLOBALSTAR M066,2007-048C,2026-06-23T21:20:22.654176,12.30386898,.00055944,51.9605,38.6732,58.3354,315.1701,0,U,32265,999,86105,-.39559393E-3,-.141E-5,0
GLOBALSTAR M079,2010-054A,2026-06-25T01:32:07.312128,12.62266186,.000088,52.0044,84.6917,41.4004,62.1003,0,U,37188,999,72354,-.26045E-4,-.108E-5,0
GLOBALSTAR M074,2010-054B,2026-06-24T01:27:13.025952,12.62268374,.00006883,52.0021,87.0098,61.7428,40.1986,0,U,37189,999,72402,-.29970535E-4,-.109E-5,0
GLOBALSTAR M076,2010-054C,2026-06-24T22:52:49.211040,12.62261903,.0000894,52.0028,84.4959,57.4176,23.3269,0,U,37190,999,72385,-.44798E-4,-.112E-5,0
GLOBALSTAR M077,2010-054D,2026-06-25T04:12:48.466080,11.67547915,.0002606,51.9922,159.0190,187.1221,257.5223,0,U,37191,999,72207,.37956E-3,-.57E-6,0
GLOBALSTAR M075,2010-054E,2026-06-25T01:05:21.861024,12.62267339,.0000349,51.9942,126.2657,31.8594,47.4282,0,U,37192,999,72293,-.46935E-4,-.112E-5,0
GLOBALSTAR M073,2010-054F,2026-06-24T23:30:22.231872,12.62266598,.0001046,52.0075,40.5733,63.6293,74.1864,0,U,37193,999,72491,.35299E-4,-.97E-6,0
GLOBALSTAR M083,2011-033A,2026-06-24T22:02:49.967232,12.62263491,.0000964,51.9877,348.9759,79.1075,83.7418,0,U,37739,999,69392,.14919E-3,-.77E-6,0
GLOBALSTAR M088,2011-033B,2026-06-23T22:39:53.696736,12.62268906,.0000562,52.0208,258.3892,136.7460,35.1854,0,U,37740,999,68934,.15949457E-4,-.101E-5,0
GLOBALSTAR M091,2011-033C,2026-06-23T21:04:16.609728,12.62264084,.00001386,51.9979,221.5467,170.5615,0.3764,0,U,37741,999,69012,.45077881E-4,-.96E-6,0
GLOBALSTAR M085,2011-033D,2026-06-25T04:35:17.207232,12.62264170,.0000286,52.0097,168.8456,347.9819,93.3118,0,U,37742,999,69080,.90212E-4,-.88E-6,0
GLOBALSTAR M081,2011-033E,2026-06-25T03:17:35.953152,12.62265170,.0000196,51.9929,171.4372,37.7968,37.9191,0,U,37743,999,69094,.93594E-4,-.87E-6,0
GLOBALSTAR M089,2011-033F,2026-06-25T04:23:18.596832,12.62267366,.0000453,51.9917,125.4549,77.9696,26.1481,0,U,37744,999,69179,.31434E-4,-.98E-6,0
GLOBALSTAR M084,2011-080A,2026-06-25T05:03:32.751072,12.62267622,.0001103,52.0028,352.8554,98.7293,72.3476,0,U,38040,999,66977,.52655E-4,-.94E-6,0
GLOBALSTAR M080,2011-080B,2026-06-24T05:34:02.736768,12.62269608,.00004196,52.0081,357.5559,76.5665,94.5169,0,U,38041,999,66977,.83480726E-4,-.89E-6,0
GLOBALSTAR M082,2011-080C,2026-06-24T04:02:14.049024,12.62263716,.00004978,52.0092,313.2519,104.5113,66.5940,0,U,38042,999,67047,.38091782E-4,-.97E-6,0
GLOBALSTAR M092,2011-080D,2026-06-25T00:09:14.058144,12.62267049,.0000802,52.0097,41.0978,74.5102,66.4364,0,U,38043,999,66903,-.36146E-5,-.104E-5,0
GLOBALSTAR M090,2011-080E,2026-06-24T02:46:20.865792,12.62269082,.00007437,52.0136,307.3702,100.1792,70.4848,0,U,38044,999,67058,.5761404E-5,-.103E-5,0
GLOBALSTAR M086,2011-080F,2026-06-24T03:17:33.328320,12.62286988,.00016968,51.9916,307.2231,79.3268,91.3316,0,U,38045,999,67053,.89344272E-4,-.88E-6,0
GLOBALSTAR M097,2013-005A,2026-06-23T19:32:46.357152,12.62270981,.00000769,52.0006,223.1645,82.7518,277.3357,0,U,39072,999,61774,.48313429E-4,-.95E-6,0
GLOBALSTAR M093,2013-005B,2026-06-23T18:54:05.706720,12.62266004,.00001822,52.0078,216.5937,52.2953,307.7930,0,U,39073,999,61769,.31727025E-4,-.98E-6,0
GLOBALSTAR M094,2013-005C,2026-06-25T03:12:20.545632,12.62268505,.0000609,51.9942,126.6036,23.9631,336.1264,0,U,39074,999,61947,-.31284E-4,-.109E-5,0
GLOBALSTAR M096,2013-005D,2026-06-25T03:31:46.922304,12.62265628,.0000237,52.0052,175.3714,356.6347,3.4518,0,U,39075,999,61839,-.54978E-4,-.114E-5,0
GLOBALSTAR M078,2013-005E,2026-06-23T22:22:35.888448,12.62258764,.00004369,51.9872,263.0705,256.6079,103.4739,0,U,39076,999,61686,.31854153E-3,-.47E-6,0
GLOBALSTAR M095,2013-005F,2026-06-23T23:01:05.102976,12.62263545,.00001047,52.0081,260.6029,119.7938,240.2939,0,U,39077,999,61672,.13195709E-4,-.101E-5,0
GLOBALSTAR M087,2022-064A,2026-06-24T22:08:24.090720,12.62269218,.0000869,52.0010,38.9029,54.2379,305.8568,0,U,52888,999,19211,.22385E-4,-.1E-5,0
